[
  {
    "OBJECT_NAME": "STARLINK-11411 [DTC]",
    "OBJECT_ID": "24213L",
    "EPOCH": "2025-11-11T03:03:39.057696",
    "MEAN_MOTION": 15.69801872,
    "ECCENTRICITY": 0.0001296,
    "INCLINATION": 53.1579,
    "RA_OF_ASC_NODE": 265.733,
    "ARG_OF_PERICENTER": 69.8032,
    "MEAN_ANOMALY": 290.3125,
    "EPHEMERIS_TYPE": 0,
    "CLASSIFICATION_TYPE": "U",
    "NORAD_CAT_ID": 62018,
    "ELEMENT_SET_NO": 999,
    "REV_AT_EPOCH": 5629,
    "BSTAR": 0.0018755,
    "MEAN_MOTION_DOT": 0.00234041,
    "MEAN_MOTION_DDOT": 0.0,
    "TLE_LINE1": "1 62018U 24213L   25315.12753539  .00234041  00000+0  18755-2 0  9991",
    "TLE_LINE2": "2 62018  53.1579 265.7330 0001296  69.8032 290.3125 15.69801872 56292",
    "COMMENT": "Grouped by shell and plane from TLE"
  },
  {
    "OBJECT_NAME": "STARLINK-11404 [DTC]",
    "OBJECT_ID": "24213M",
    "EPOCH": "2025-11-11T06:49:23.825856",
    "MEAN_MOTION": 15.69800248,
    "ECCENTRICITY": 0.0001405,
    "INCLINATION": 53.1571,
    "RA_OF_ASC_NODE": 265.2965,
    "ARG_OF_PERICENTER": 92.6498,
    "MEAN_ANOMALY": 267.4681,
    "EPHEMERIS_TYPE": 0,
    "CLASSIFICATION_TYPE": "U",
    "NORAD_CAT_ID": 62019,
    "ELEMENT_SET_NO": 999,
    "REV_AT_EPOCH": 5631,
    "BSTAR": 0.0020025999999999998,
    "MEAN_MOTION_DOT": 0.00250429,
    "MEAN_MOTION_DDOT": 0.0,
    "TLE_LINE1": "1 62019U 24213M   25315.28430354  .00250429  00000+0  20026-2 0  9998",
    "TLE_LINE2": "2 62019  53.1571 265.2965 0001405  92.6498 267.4681 15.69800248 56317",
    "COMMENT": "Grouped by shell and plane from TLE"
  },
  {
    "OBJECT_NAME": "STARLINK-11378 [DTC]",
    "OBJECT_ID": "24213N",
    "EPOCH": "2025-11-11T06:56:18.594240",
    "MEAN_MOTION": 15.69786415,
    "ECCENTRICITY": 0.0001669,
    "INCLINATION": 53.1569,
    "RA_OF_ASC_NODE": 264.5932,
    "ARG_OF_PERICENTER": 131.2116,
    "MEAN_ANOMALY": 228.9046,
    "EPHEMERIS_TYPE": 0,
    "CLASSIFICATION_TYPE": "U",
    "NORAD_CAT_ID": 62020,
    "ELEMENT_SET_NO": 999,
    "REV_AT_EPOCH": 5632,
    "BSTAR": 0.0013594,
    "MEAN_MOTION_DOT": 0.00168015,
    "MEAN_MOTION_DDOT": 0.0,
    "TLE_LINE1": "1 62020U 24213N   25315.28910410  .00168015  00000+0  13594-2 0  9997",
    "TLE_LINE2": "2 62020  53.1569 264.5932 0001669 131.2116 228.9046 15.69786415 56328",
    "COMMENT": "Grouped by shell and plane from TLE"
  }
]